CTC1_L_00503008-07
1 44250U 26885TE  26070.40837963  .00000000  00000+0  00000-0 0  9998
2 44250  96.7000  84.0000 0000000   0.0000 312.0000 15.90815360    16
CTC1_L_00503008-08
1 44251U 22598JM  26070.40837963  .00000000  00000+0  00000-0 0  9996
2 44251  96.7000  84.0000 0000000   0.0000 357.0000 15.90815360    16
CTC1_L_00503009-01
1 44252U 22417LY  26070.40837963  .00000000  00000+0  00000-0 0  9997
2 44252  96.7000  96.0000 0000000   0.0000  48.0000 15.90815360    17
CTC1_L_00503009-02
1 44253U 22567HX  26070.40837963  .00000000  00000+0  00000-0 0  9994
2 44253  96.7000  96.0000 0000000   0.0000  93.0000 15.90815360    18
CTC1_L_00503009-03
1 44254U 22282GF  26070.40837963  .00000000  00000+0  00000-0 0  9999
2 44254  96.7000  96.0000 0000000   0.0000 138.0000 15.90815360    19
CTC1_L_00503009-04
1 44255U 23080OC  26070.40837963  .00000000  00000+0  00000-0 0  9997
2 44255  96.7000  96.0000 0000000   0.0000 183.0000 15.90815360    10
CTC1_L_00503009-05
1 44256U 24894SI  26070.40837963  .00000000  00000+0  00000-0 0  9992
2 44256  96.7000  96.0000 0000000   0.0000 228.0000 15.90815360    11
CTC1_L_00503009-06
1 44257U 24855CN  26070.40837963  .00000000  00000+0  00000-0 0  9990
2 44257  96.7000  96.0000 0000000   0.0000 273.0000 15.90815360    12
CTC1_L_00503009-07
1 44258U 25597BX  26070.40837963  .00000000  00000+0  00000-0 0  9995
2 44258  96.7000  96.0000 0000000   0.0000 318.0000 15.90815360    13
CTC1_L_00503009-08
1 44259U 23324EV  26070.40837963  .00000000  00000+0  00000-0 0  9992
2 44259  96.7000  96.0000 0000000   0.0000   3.0000 15.90815360    15
CTC1_L_00503010-01
1 44260U 26609OB  26070.40837963  .00000000  00000+0  00000-0 0  9993
2 44260  96.7000 108.0000 0000000   0.0000  54.0000 15.90815360    17
CTC1_L_00503010-02
1 44261U 22149QR  26070.40837963  .00000000  00000+0  00000-0 0  9999
2 44261  96.7000 108.0000 0000000   0.0000  99.0000 15.90815360    17
CTC1_L_00503010-03
1 44262U 22313WK  26070.40837963  .00000000  00000+0  00000-0 0  9993
2 44262  96.7000 108.0000 0000000   0.0000 144.0000 15.90815360    19
CTC1_L_00503010-04
1 44263U 23237IY  26070.40837963  .00000000  00000+0  00000-0 0  9990
2 44263  96.7000 108.0000 0000000   0.0000 189.0000 15.90815360    19
CTC1_L_00503010-05
1 44264U 24288WZ  26070.40837963  .00000000  00000+0  00000-0 0  9998
2 44264  96.7000 108.0000 0000000   0.0000 234.0000 15.90815360    11
CTC1_L_00503010-06
1 44265U 24647TU  26070.40837963  .00000000  00000+0  00000-0 0  9998
2 44265  96.7000 108.0000 0000000   0.0000 279.0000 15.90815360    11
CTC1_L_00503010-07
1 44266U 25847LI  26070.40837963  .00000000  00000+0  00000-0 0  9992
2 44266  96.7000 108.0000 0000000   0.0000 324.0000 15.90815360    13
CTC1_L_00503010-08
1 44267U 23431SO  26070.40837963  .00000000  00000+0  00000-0 0  9990
2 44267  96.7000 108.0000 0000000   0.0000   9.0000 15.90815360    14
CTC1_L_00503011-01
1 44268U 25080YX  26070.40837963  .00000000  00000+0  00000-0 0  9993
2 44268  96.7000 120.0000 0000000   0.0000  60.0000 15.90815360    16
CTC1_L_00503011-02
1 44269U 26851PM  26070.40837963  .00000000  00000+0  00000-0 0  9991
2 44269  96.7000 120.0000 0000000   0.0000 105.0000 15.90815360    17
CTC1_L_00503011-03
1 44270U 25943DX  26070.40837963  .00000000  00000+0  00000-0 0  9994
2 44270  96.7000 120.0000 0000000   0.0000 150.0000 15.90815360    19
CTC1_L_00503011-04
1 44271U 23912PL  26070.40837963  .00000000  00000+0  00000-0 0  9999
2 44271  96.7000 120.0000 0000000   0.0000 195.0000 15.90815360    19
CTC1_L_00503011-05
1 44272U 26117ZS  26070.40837963  .00000000  00000+0  00000-0 0  9990
2 44272  96.7000 120.0000 0000000   0.0000 240.0000 15.90815360    11
CTC1_L_00503011-06
1 44273U 25413OW  26070.40837963  .00000000  00000+0  00000-0 0  9999
2 44273  96.7000 120.0000 0000000   0.0000 285.0000 15.90815360    11
CTC1_L_00503011-07
1 44274U 23737TU  26070.40837963  .00000000  00000+0  00000-0 0  9997
2 44274  96.7000 120.0000 0000000   0.0000 330.0000 15.90815360    13
CTC1_L_00503011-08
1 44275U 23121TR  26070.40837963  .00000000  00000+0  00000-0 0  9995
2 44275  96.7000 120.0000 0000000   0.0000  15.0000 15.90815360    14
CTC1_L_00503012-01
1 44276U 24131XA  26070.40837963  .00000000  00000+0  00000-0 0  9998
2 44276  96.7000 132.0000 0000000   0.0000  66.0000 15.90815360    14
CTC1_L_00503012-02
1 44277U 26005QZ  26070.40837963  .00000000  00000+0  00000-0 0  9991
2 44277  96.7000 132.0000 0000000   0.0000 111.0000 15.90815360    16
CTC1_L_00503012-03
1 44278U 23757JN  26070.40837963  .00000000  00000+0  00000-0 0  9993
2 44278  96.7000 132.0000 0000000   0.0000 156.0000 15.90815360    16
CTC1_L_00503012-04
1 44279U 23473TO  26070.40837963  .00000000  00000+0  00000-0 0  9999
2 44279  96.7000 132.0000 0000000   0.0000 201.0000 15.90815360    18
CTC1_L_00503012-05
1 44280U 25723HW  26070.40837963  .00000000  00000+0  00000-0 0  9991
2 44280  96.7000 132.0000 0000000   0.0000 246.0000 15.90815360    19
CTC1_L_00503012-06
1 44281U 25903XT  26070.40837963  .00000000  00000+0  00000-0 0  9992
2 44281  96.7000 132.0000 0000000   0.0000 291.0000 15.90815360    10
CTC1_L_00503012-07
1 44282U 24614RV  26070.40837963  .00000000  00000+0  00000-0 0  9991
2 44282  96.7000 132.0000 0000000   0.0000 336.0000 15.90815360    11
CTC1_L_00503012-08
1 44283U 23154PF  26070.40837963  .00000000  00000+0  00000-0 0  9990
2 44283  96.7000 132.0000 0000000   0.0000  21.0000 15.90815360    13
CTC1_L_00503013-01
1 44284U 23629YK  26070.40837963  .00000000  00000+0  00000-0 0  9998
2 44284  96.7000 144.0000 0000000   0.0000  72.0000 15.90815360    13
CTC1_L_00503013-02
1 44285U 25009BR  26070.40837963  .00000000  00000+0  00000-0 0  9993
2 44285  96.7000 144.0000 0000000   0.0000 117.0000 15.90815360    14
CTC1_L_00503013-03
1 44286U 24798NN  26070.40837963  .00000000  00000+0  00000-0 0  9998
2 44286  96.7000 144.0000 0000000   0.0000 162.0000 15.90815360    15
CTC1_L_00503013-04
1 44287U 24515QB  26070.40837963  .00000000  00000+0  00000-0 0  9996
2 44287  96.7000 144.0000 0000000   0.0000 207.0000 15.90815360    16
CTC1_L_00503013-05
1 44288U 25566DV  26070.40837963  .00000000  00000+0  00000-0 0  9994
2 44288  96.7000 144.0000 0000000   0.0000 252.0000 15.90815360    17
CTC1_L_00503013-06
1 44289U 22682FN  26070.40837963  .00000000  00000+0  00000-0 0  9991
2 44289  96.7000 144.0000 0000000   0.0000 297.0000 15.90815360    17
CTC1_L_00503013-07
1 44290U 22077BE  26070.40837963  .00000000  00000+0  00000-0 0  9991
2 44290  96.7000 144.0000 0000000   0.0000 342.0000 15.90815360    10
CTC1_L_00503013-08
1 44291U 22606FJ  26070.40837963  .00000000  00000+0  00000-0 0  9990
2 44291  96.7000 144.0000 0000000   0.0000  27.0000 15.90815360    11
CTC1_L_00503014-01
1 44292U 26589D   26070.40837963  .00000000  00000+0  00000-0 0  9995
2 44292  96.7000 156.0000 0000000   0.0000  78.0000 15.90815360    11
CTC1_L_00503014-02
1 44293U 22971EQ  26070.40837963  .00000000  00000+0  00000-0 0  9997
2 44293  96.7000 156.0000 0000000   0.0000 123.0000 15.90815360    13
CTC1_L_00503014-03
1 44294U 26504PC  26070.40837963  .00000000  00000+0  00000-0 0  9994
2 44294  96.7000 156.0000 0000000   0.0000 168.0000 15.90815360    13
CTC1_L_00503014-04
1 44295U 23847NA  26070.40837963  .00000000  00000+0  00000-0 0  9992
2 44295  96.7000 156.0000 0000000   0.0000 213.0000 15.90815360    15
CTC1_L_00503014-05
1 44296U 23968XW  26070.40837963  .00000000  00000+0  00000-0 0  9997
2 44296  96.7000 156.0000 0000000   0.0000 258.0000 15.90815360    15
CTC1_L_00503014-06
1 44297U 26095AZ  26070.40837963  .00000000  00000+0  00000-0 0  9992
2 44297  96.7000 156.0000 0000000   0.0000 303.0000 15.90815360    17
CTC1_L_00503014-07
1 44298U 23431LG  26070.40837963  .00000000  00000+0  00000-0 0  9994
2 44298  96.7000 156.0000 0000000   0.0000 348.0000 15.90815360    17
CTC1_L_00503014-08
1 44299U 22574ZK  26070.40837963  .00000000  00000+0  00000-0 0  9992
2 44299  96.7000 156.0000 0000000   0.0000  33.0000 15.90815360    19
CTC1_L_00503015-01
1 44300U 24726FT  26070.40837963  .00000000  00000+0  00000-0 0  9996
2 44300  96.7000 168.0000 0000000   0.0000  84.0000 15.90815360    11
CTC1_L_00503015-02
1 44301U 25329FU  26070.40837963  .00000000  00000+0  00000-0 0  9997
2 44301  96.7000 168.0000 0000000   0.0000 129.0000 15.90815360    12
CTC1_L_00503015-03
1 44302U 22234LD  26070.40837963  .00000000  00000+0  00000-0 0  9990
2 44302  96.7000 168.0000 0000000   0.0000 174.0000 15.90815360    13
CTC1_L_00503015-04
1 44303U 24070QC  26070.40837963  .00000000  00000+0  00000-0 0  9991
2 44303  96.7000 168.0000 0000000   0.0000 219.0000 15.90815360    14
CTC1_L_00503015-05
1 44304U 23248PP  26070.40837963  .00000000  00000+0  00000-0 0  9998
2 44304  96.7000 168.0000 0000000   0.0000 264.0000 15.90815360    15
CTC1_L_00503015-06
1 44305U 22987JD  26070.40837963  .00000000  00000+0  00000-0 0  9998
2 44305  96.7000 168.0000 0000000   0.0000 309.0000 15.90815360    16
CTC1_L_00503015-07
1 44306U 25343IM  26070.40837963  .00000000  00000+0  00000-0 0  9998
2 44306  96.7000 168.0000 0000000   0.0000 354.0000 15.90815360    17
CTC1_L_00503015-08
1 44307U 22684DA  26070.40837963  .00000000  00000+0  00000-0 0  9994
2 44307  96.7000 168.0000 0000000   0.0000  39.0000 15.90815360    18
CTC1_L_00503016-01
1 44308U 24593FN  26070.40837963  .00000000  00000+0  00000-0 0  9996
2 44308  96.7000 180.0000 0000000   0.0000  90.0000 15.90815360    10
CTC1_L_00503016-02
1 44309U 23102CK  26070.40837963  .00000000  00000+0  00000-0 0  9992
2 44309  96.7000 180.0000 0000000   0.0000 135.0000 15.90815360    11
CTC1_L_00503016-03
1 44310U 26787DM  26070.40837963  .00000000  00000+0  00000-0 0  9996
2 44310  96.7000 180.0000 0000000   0.0000 180.0000 15.90815360    13
CTC1_L_00503016-04
1 44311U 22958QJ  26070.40837963  .00000000  00000+0  00000-0 0  9993
2 44311  96.7000 180.0000 0000000   0.0000 225.0000 15.90815360    14
